satname,norad_id,inclination_deg,eccentricity,mean_motion_rev_per_day,perigee_km,apogee_km,l1,l2
STARLINK-1008,44714,53.156,0.0003205,15.34946838,458.88643643988325,463.27037351447325,1 44714U 19074B   26107.95583412  .00042591  00000+0  12427-2 0  9992,2 44714  53.1560 355.5929 0003205 163.8918 196.2187 15.34946838354890
STARLINK-1012,44718,53.1617,0.000371,15.34261295,460.57742706696354,465.653636445526,1 44718U 19074F   26107.95611267  .00034608  00000+0  10351-2 0  9990,2 44718  53.1617 355.8772 0003710 150.5137 209.6076 15.34261295354885
STARLINK-1017,44723,53.0501,0.0003334,15.27638936,480.58516551787125,485.16008673657234,1 44723U 19074L   26107.97161197  .00026065  00000+0  96129-3 0  9996,2 44723  53.0501 349.7181 0003334 159.5752 200.5380 15.27638936354961
STARLINK-1019,44724,53.0353,0.0005703,15.9640811,280.5940768689461,288.1933594060538,1 44724U 19074M   26108.00004630  .00252186  36404-4  59331-3 0  9991,2 44724  53.0353 297.0037 0005703 288.9332  41.8146 15.96408110  6038
STARLINK-1020,44725,53.1616,0.0002989,15.3332157,463.8647541729788,467.9561257325822,1 44725U 19074N   26107.49938225  .00027407  00000+0  84760-3 0  9998,2 44725  53.1616  23.2411 0002989 149.4479 210.6698 15.33321570354447
STARLINK-1036,44741,53.0462,0.0004231,15.64235844,372.5799182621222,378.29479288180664,1 44741U 19074AE  26107.69149223  .00071327  00000+0  73384-3 0  9990,2 44741  53.0462 358.5462 0004231 129.1091 231.0300 15.64235844354810
STARLINK-1039,44744,53.0651,0.000186,15.25064353,489.31461724389555,491.8697845066217,1 44744U 19074AH  26107.91223856  .00015683  00000+0  63125-3 0  9998,2 44744  53.0651  34.3542 0001860  68.4543 291.6652 15.25064353354334
STARLINK-1042,44747,53.0428,4.2e-05,15.51914046,410.85282867184196,411.4231277700128,1 44747U 19074AL  26107.76956081  .00015560  00000+0  26208-3 0  9992,2 44747  53.0428 266.9856 0000420 301.0939  59.0028 15.51914046356131
STARLINK-1043,44748,53.0523,0.0002346,15.5623401,396.97807016545994,400.15770009756307,1 44748U 19074AM  26107.09271465  .00025711  00000+0  36559-3 0  9994,2 44748  53.0523   8.8433 0002346 141.4617 218.6562 15.56234010354629
STARLINK-1046,44751,53.0517,0.0001797,15.48590207,419.627567484923,422.07112317743486,1 44751U 19074AQ  26107.91661641  .00046867  00000+0  86711-3 0  9998,2 44751  53.0517  23.7755 0001797 331.1811  28.9097 15.48590207354485
STARLINK-1047,44752,53.0703,0.0002608,15.3349465,463.6106617313362,467.1802482598614,1 44752U 19074AR  26107.74234858  .00006381  00000+0  20553-3 0  9995,2 44752  53.0703 323.4396 0002608  25.1354 334.9774 15.33494650355334
STARLINK-1048,44753,53.0493,0.0002806,15.60501676,384.30886604460557,388.10501586426926,1 44753U 19074AS  26107.93158750  .00067235  00000+0  80063-3 0  9990,2 44753  53.0493 338.5301 0002806 175.3209 184.7831 15.60501676355119
STARLINK-1063,44768,53.1583,0.0003718,15.3388708,461.68417997289816,466.77216271430916,1 44768U 19074BH  26107.96194015  .00029689  00000+0  90071-3 0  9994,2 44768  53.1583  36.4955 0003718 127.1743 232.9599 15.33887080354332
STARLINK-1067,44771,53.048,0.0006007,15.65200515,368.60693773630373,376.71734782644035,1 44771U 19074BL  26107.93436090  .00061013  00000+0  60548-3 0  9990,2 44771  53.0480  12.6441 0006007 125.2753 234.8824 15.65200515354644
STARLINK-1068,44772,53.0465,0.0003988,15.6890088,359.3551533354912,364.731121012901,1 44772U 19074BM  26107.92175421  .00038860  00000+0  33494-3 0  9992,2 44772  53.0465 346.8956 0003988  79.9707 280.1759 15.68900880354994
STARLINK-1114,44927,53.0444,0.0004642,15.57241472,392.500374144729,398.78915313409107,1 44927U 20001P   26107.91354474  .00052437  00000+0  70880-3 0  9998,2 44927  53.0444 140.0466 0004642 319.4608  40.6056 15.57241472346198
STARLINK-1123,44930,53.1469,0.0003976,15.31668954,468.1093930089437,473.55569358977664,1 44930U 20001S   26107.44102378  .00025743  00000+0  83914-3 0  9996,2 44930  53.1469 165.1447 0003976  30.4213 329.7018 15.31668954345804
STARLINK-1094,44941,53.1547,0.0003286,15.3329556,463.73885946813607,468.2368183122544,1 44941U 20001AD  26107.77532944  .00025368  00000+0  78623-3 0  9994,2 44941  53.1547 137.6646 0003286  45.6118 314.5153 15.33295560346224
STARLINK-1122,44949,53.156,0.0001271,15.3085004,472.4040395348957,474.1456684281793,1 44949U 20001AM  26107.37368178  .00023191  00000+0  77694-3 0  9993,2 44949  53.1560 139.8959 0001271  85.1025 275.0121 15.30850040346151
STARLINK-1080,44961,53.048,0.0001691,15.53905061,404.1902652128074,406.48443623822277,1 44961U 20001AZ  26107.67371548  .00052387  00000+0  80083-3 0  9990,2 44961  53.0480 100.9424 0001691 341.0146  19.0801 15.53905061346728
STARLINK-1090,44968,53.1509,0.0003792,15.31967611,467.3455851890694,472.5391685885015,1 44968U 20001BG  26107.46777797  .00026190  00000+0  84558-3 0  9994,2 44968  53.1509 126.2436 0003792  46.5996 313.5321 15.31967611346359
STARLINK-1132,45044,53.1543,0.0004613,15.48630154,417.59610621175307,423.86874314296074,1 45044U 20006A   26107.90013856  .00047314  00000+0  87387-3 0  9997,2 45044  53.1543  67.4178 0004613  36.7164 323.4161 15.48630154342998
STARLINK-1131,45047,53.1579,0.0002456,15.32186892,467.60725205218387,470.9707076934965,1 45047U 20006D   26107.70887791  .00029196  00000+0  93458-3 0  9999,2 45047  53.1579  99.5697 0002456  75.6510 284.4764 15.32186892342524
STARLINK-1134,45048,53.0307,0.0004014,15.48702661,417.79123617375717,423.24919818771014,1 45048U 20006E   26107.08517336  .00049149  00000+0  90493-3 0  9992,2 45048  53.0307  55.0339 0004014 333.6136  26.4666 15.48702661343088
STARLINK-1156,45054,53.1579,0.0001477,15.30793064,472.4328803009057,474.45683758203813,1 45054U 20006L   26107.68308386  .00027412  00000+0  91728-3 0  9999,2 45054  53.1579  99.8488 0001477  94.4340 265.6830 15.30793064342512
STARLINK-1159,45057,53.0386,0.0002512,15.98944172,275.67510183769446,279.01881697890076,1 45057U 20006P   26108.00004630  .00200717  27713-4  41208-3 0  9998,2 45057  53.0386  34.6930 0002512 148.6871 266.5115 15.98944172  6044
STARLINK-1166,45060,53.0484,0.0003123,15.51571959,410.0152617777512,414.25646620860243,1 45060U 20006S   26107.94657635  .00054802  00000+0  91040-3 0  9999,2 45060  53.0484  84.7309 0003123  39.2159 320.9075 15.51571959342744
STARLINK-1169,45061,53.1555,0.0003947,15.33364248,463.08215076022225,468.48474156042084,1 45061U 20006T   26107.94575674  .00035172  00000+0  10819-2 0  9995,2 45061  53.1555  98.2854 0003947  72.1829 287.9603 15.33364248342564
STARLINK-1171,45062,53.0451,0.0004821,15.68118879,361.03325815484914,367.53430027016566,1 45062U 20006U   26107.83314900  .00038527  00000+0  34285-3 0  9998,2 45062  53.0451  57.0618 0004821  89.8283 270.3286 15.68118879343122
STARLINK-1133,45064,53.1588,0.0001514,15.30894157,472.10594111713544,474.18050876924826,1 45064U 20006W   26107.91686719  .00032719  00000+0  10884-2 0  9994,2 45064  53.1588  75.5600 0001514 107.8158 252.3009 15.30894157342884
STARLINK-1167,45071,53.1578,0.0003734,15.33021406,464.24788150332733,469.35968327961655,1 45071U 20006AD  26107.92741181  .00037268  00000+0  11578-2 0  9993,2 45071  53.1578  75.3755 0003734  82.8210 277.3216 15.33021406342886
STARLINK-1168,45072,53.16,0.0002801,15.30850669,471.3538972958877,475.1920571651317,1 45072U 20006AE  26107.31072283  .00039022  00000+0  12963-2 0  9996,2 45072  53.1600  78.5908 0002801  78.9289 281.2027 15.30850669342785
STARLINK-1172,45074,53.1563,0.0003606,15.33856953,461.85037732437377,466.78515570198397,1 45074U 20006AG  26107.91711490  .00034622  00000+0  10488-2 0  9995,2 45074  53.1563  75.1220 0003606  85.8600 274.2814 15.33856953342885
STARLINK-1153,45080,53.1593,0.0004242,15.32889861,464.29158602751613,470.09916601533314,1 45080U 20006AN  26107.32453641  .00028673  00000+0  89805-3 0  9997,2 45080  53.1593  78.1036 0004242  92.5186 267.6302 15.32889861342795
STARLINK-1151,45081,53.0514,0.0004738,15.70574578,354.0625659965999,360.4450223131398,1 45081U 20006AP  26107.83481703  .00047224  00000+0  37840-3 0  9999,2 45081  53.0514  46.8267 0004738 103.6291 256.5254 15.70574578343261
STARLINK-1185,45087,53.1613,0.0002157,15.40546785,443.02283142361284,445.966114641079,1 45087U 20006AV  26107.28073257  .00035804  00000+0  87383-3 0  9993,2 45087  53.1613  61.3757 0002157 119.2294 240.8927 15.40546785343026
STARLINK-1183,45088,53.1603,0.0001366,15.30807865,472.46477466212855,474.33661476032466,1 45088U 20006AW  26107.15560320  .00012356  00000+0  42069-3 0  9991,2 45088  53.1603  63.8800 0001366 103.7538 256.3615 15.30807865342979
STARLINK-1152,45096,53.0373,0.000278,15.43037022,435.2573578997026,439.04665858828685,1 45096U 20006BE  26107.05892173  .00036049  00000+0  80972-3 0  9993,2 45096  53.0373  24.8166 0002780  45.4173 314.7059 15.43037022343506
STARLINK-1184,45098,53.0525,0.0001538,15.12165004,528.5363994044055,530.6612189393072,1 45098U 20006BG  26107.88331229  .00014563  00000+0  84999-3 0  9996,2 45098  53.0525  68.1382 0001538 257.4258 102.6561 15.12165004342966
STARLINK-1193,45100,53.0503,0.0006184,15.6177281,378.35528909749974,386.7168895743898,1 45100U 20006BJ  26107.24389951  .00057337  00000+0  65147-3 0  9995,2 45100  53.0503  42.9312 0006184 100.0728 260.0983 15.61772810343260
STARLINK-1143,45179,53.0437,0.0004582,15.72563027,348.4912711350471,354.6583790515624,1 45179U 20012B   26107.51374850  .00065319  00000+0  47871-3 0  9993,2 45179  53.0437 138.5440 0004582 317.8689  42.1976 15.72563027342013
STARLINK-1202,45183,53.1577,0.0001543,15.30647874,472.82085853798344,474.935390405396,1 45183U 20012F   26107.68031844  .00027356  00000+0  91955-3 0  9990,2 45183  53.1577 218.1280 0001543  18.2328 341.8728 15.30647874340926
STARLINK-1216,45185,53.1565,0.0001588,15.3094623,471.89990760852197,474.0758248660377,1 45185U 20012H   26107.79982728  .00038227  00000+0  12666-2 0  9990,2 45185  53.1565 217.5342 0001588  25.5738 334.5341 15.30946230340885
